[{"OBJECT_NAME":"STARLINK-1559","OBJECT_ID":"2020-055BC","EPOCH":"2026-03-09T05:36:23.522976","MEAN_MOTION":15.29461733,"ECCENTRICITY":0.0004229,"INCLINATION":53.0254,"RA_OF_ASC_NODE":76.0659,"ARG_OF_PERICENTER":33.971,"MEAN_ANOMALY":326.1559,"EPHEMERIS_TYPE":0,"CLASSIFICATION_TYPE":"U","NORAD_CAT_ID":46077,"ELEMENT_SET_NO":999,"REV_AT_EPOCH":30951,"BSTAR":0.0014778793,"MEAN_MOTION_DOT":0.00042685,"MEAN_MOTION_DDOT":0},{"OBJECT_NAME":"STARLINK-35298","OBJECT_ID":"2025-221V","EPOCH":"2026-03-09T10:23:45.572640","MEAN_MOTION":15.30197295,"ECCENTRICITY":0.00014475,"INCLINATION":53.1601,"RA_OF_ASC_NODE":89.5677,"ARG_OF_PERICENTER":83.5651,"MEAN_ANOMALY":276.5515,"EPHEMERIS_TYPE":0,"CLASSIFICATION_TYPE":"U","NORAD_CAT_ID":65842,"ELEMENT_SET_NO":999,"REV_AT_EPOCH":2469,"BSTAR":0.00064421888,"MEAN_MOTION_DOT":0.00018767,"MEAN_MOTION_DDOT":0}]
