STARLINK-1559           
1 46077U 20055BC  26068.23360559  .00042685  00000+0  14779-2 0  9995
2 46077  53.0254  76.0659 0004229  33.9710 326.1559 15.29461733309518
STARLINK-35298          
1 65842U 25221V   26068.43316635  .00018767  00000+0  64422-3 0  9999
2 65842  53.1601  89.5677 0001447  83.5651 276.5515 15.30197295 24693
